[{"OBJECT_NAME":"OTB-3-GAZELLE","OBJECT_ID":"2022-127A","EPOCH":"2026-03-09T22:46:18.860160","MEAN_MOTION":14.42635336,"ECCENTRICITY":0.00141015,"INCLINATION":98.3911,"RA_OF_ASC_NODE":62.1873,"ARG_OF_PERICENTER":125.0273,"MEAN_ANOMALY":235.2243,"EPHEMERIS_TYPE":0,"CLASSIFICATION_TYPE":"U","NORAD_CAT_ID":54023,"ELEMENT_SET_NO":999,"REV_AT_EPOCH":18005,"BSTAR":6.3190972e-5,"MEAN_MOTION_DOT":1.67e-6,"MEAN_MOTION_DDOT":0},{"OBJECT_NAME":"METEOR 2-2 DEB","OBJECT_ID":"1977-002F","EPOCH":"2026-03-08T06:45:19.475424","MEAN_MOTION":14.4180275,"ECCENTRICITY":0.00099953,"INCLINATION":81.2379,"RA_OF_ASC_NODE":66.2834,"ARG_OF_PERICENTER":287.4589,"MEAN_ANOMALY":72.5507,"EPHEMERIS_TYPE":0,"CLASSIFICATION_TYPE":"U","NORAD_CAT_ID":35423,"ELEMENT_SET_NO":999,"REV_AT_EPOCH":65551,"BSTAR":0.0038277362,"MEAN_MOTION_DOT":0.00012538,"MEAN_MOTION_DDOT":0}]
